[{"OBJECT_NAME":"ONEWEB-0370","OBJECT_ID":"2021-090T","EPOCH":"2026-03-09T15:04:27.686208","MEAN_MOTION":13.20771133,"ECCENTRICITY":0.0001884,"INCLINATION":87.917,"RA_OF_ASC_NODE":294.3192,"ARG_OF_PERICENTER":80.7826,"MEAN_ANOMALY":279.3521,"EPHEMERIS_TYPE":0,"CLASSIFICATION_TYPE":"U","NORAD_CAT_ID":49296,"ELEMENT_SET_NO":999,"REV_AT_EPOCH":21672,"BSTAR":-0.00033206,"MEAN_MOTION_DOT":-1.22e-6,"MEAN_MOTION_DDOT":0},{"OBJECT_NAME":"TUBSAT B","OBJECT_ID":"1994-003C","EPOCH":"2026-03-09T18:44:33.482976","MEAN_MOTION":13.17152588,"ECCENTRICITY":0.00174374,"INCLINATION":82.5657,"RA_OF_ASC_NODE":156.0592,"ARG_OF_PERICENTER":90.3714,"MEAN_ANOMALY":28.1979,"EPHEMERIS_TYPE":0,"CLASSIFICATION_TYPE":"U","NORAD_CAT_ID":22971,"ELEMENT_SET_NO":999,"REV_AT_EPOCH":54398,"BSTAR":0.00029992922,"MEAN_MOTION_DOT":1.28e-6,"MEAN_MOTION_DDOT":0}]
